#aV2006 11 19  0  0   .00000000      96 DD+AD WGS84 FIT  NGA
## 1402       .00000000   900.00000000 54058  .0000000000000
+   29     1  2  3  4  5  6  7  8  9 10 11 13 14 16 17 18 19
+         20 21 22 23 24 25 26 27 28 29 30 31  0  0  0  0  0
+          0  0  0  0  0  0  0  0  0  0  0  0  0  0  0  0  0
+          0  0  0  0  0  0  0  0  0  0  0  0  0  0  0  0  0
+          0  0  0  0  0  0  0  0  0  0  0  0  0  0  0  0  0
++         0  0  0  0  0  0  0  0  0  0  0  0  0  0  0  0  0
++         0  0  0  0  0  0  0  0  0  0  0  0  0  0  0  0  0
++         0  0  0  0  0  0  0  0  0  0  0  0  0  0  0  0  0
++         0  0  0  0  0  0  0  0  0  0  0  0  0  0  0  0  0
++         0  0  0  0  0  0  0  0  0  0  0  0  0  0  0  0  0
%c cc cc ccc ccc cccc cccc cccc cccc ccccc ccccc ccccc ccccc
%c cc cc ccc ccc cccc cccc cccc cccc ccccc ccccc ccccc ccccc
%f  0.0000000  0.000000000  0.00000000000  0.000000000000000
%f  0.0000000  0.000000000  0.00000000000  0.000000000000000
%i    0    0    0    0      0      0      0      0         0
%i    0    0    0    0      0      0      0      0         0
/*      NGA, ST. LOUIS,MO.                                  
/*   EPHEMERIS COMPUTED FROM  3 DAYS OF DATA                
/* CCCCCCCCCCCCCCCCCCCCCCCCCCCCCCCCCCCCCCCCCCCCCCCCCCCCCCCCC
/* CCCCCCCCCCCCCCCCCCCCCCCCCCCCCCCCCCCCCCCCCCCCCCCCCCCCCCCCC
*  2006 11 19  7 30   .00000000                                                 
P  1 -20930.988549 -15402.119475   5864.615933     90.051976                    
V  1   7138.806642   1781.140916  31186.108993       .027803                    
P  2  13212.057315  16600.630089 -16361.865067     56.053449                    
V  2   -136.707247  20362.940041  20616.472461       .036089                    
P  3 -24080.040805 -11234.568068  -3168.046332    408.382683                    
V  3   4764.737907  -2075.026420 -30414.697648       .297124                    
P  4   5763.511113  25107.786007  -5676.092907    337.964811                    
V  4  -2914.228032   7444.012204  30584.882181       .041194                    
P  5  22467.639735 -12181.042462   6702.406658    374.037622                    
V  5  -4598.498812   8364.740309  29762.359339       .272767                    
P  6  11871.186464 -11499.244192 -20613.320528    545.211465                    
V  6  24169.817143  11370.295573   7452.867893      -.141206                    
P  7  -5922.147161 -17335.082303 -18828.989441    492.500169                    
V  7  23692.163883   7561.275692 -14224.748666      -.078827                    
P  8  -1539.001224  26024.935989  -3767.421920    -86.599298                    
V  8  -2848.656848  -4563.736417 -31890.910342      -.010885                    
P  9  14614.750106  -3003.180713  21394.207217     45.264916                    
V  9   3692.720153  28307.719078   1648.377623       .016232                    
P 10  17862.135474   4128.360650 -19429.408949     93.052345                    
V 10 -19774.533754  14205.156275 -14928.969925       .005698                    
P 11 -15245.375087   6837.911431  20538.354215     -3.890756                    
V 11  -6991.958014 -25673.719795   3624.957827       .016093                    
P 13  -9765.597535  11183.837722 -22108.406839    114.200671                    
V 13 -24621.832007 -12844.403824   4434.703869       .036647                    
P 14  -8350.138904 -17527.867431  18238.697769      -.645393                    
V 14  21015.678349   9169.931940  18444.236512       .009871                    
P 16 -14638.241730  -7573.135913 -20773.781294     93.267389                    
V 16  21539.574530 -15502.649291  -9372.081060       .037586                    
P 17   8181.920236  17826.002012  17954.775142     89.158511                    
V 17 -21221.385849  -8402.010107  17897.282523      -.012772                    
P 18  14632.957083 -18835.501798  11469.267198   -252.727842                    
V 18  13718.150722  -5421.474382 -27023.783994      -.004402                    
P 19 -24377.942393  -6725.147963   8359.396767     35.810591                    
V 19  -7906.487733  -7326.769102 -29210.730291       .039501                    
P 20 -22738.699720  13267.297903   3285.222604    -21.806053                    
V 20   1756.166133  -4934.876414  31281.660868       .000234                    
P 21   5840.236576 -23742.384183  -9572.136185     61.936092                    
V 21   4106.713864  12312.809664 -28320.039486       .014503                    
P 22   2481.687687 -17930.124380  19593.424675    150.364821                    
V 22  21552.627815 -11849.975339 -13708.640075       .027063                    
P 23 -20010.802328   3643.964298 -17265.746603    140.745077                    
V 23 -18981.044937 -10543.405477  19679.101634       .008047                    
P 24  10883.516530  19005.021734 -14639.886049     53.499682                    
V 24  -1781.660377  19112.997971  23456.429046       .029153                    
P 25 -11000.623982 -21755.857639  -9949.526376    405.881987                    
V 25    464.479538 -13567.076627  28181.982977       .023772                    
P 26  24721.262589   7603.401151   6834.236518    -10.858396                    
V 26   7453.737478   5337.868049 -30491.312653      -.163423                    
P 27  -5636.956930  22209.476700 -12548.908128     78.804013                    
V 27  -5087.033737 -16495.487944 -25945.842557       .019873                    
P 28  -6013.505361  18907.636099  17784.660510     13.925349                    
V 28 -19424.237452  10743.205025 -18647.143420      -.009046                    
P 29  24899.327828   9238.224262   3287.551542    205.199278                    
V 29   2786.906028   3114.553634 -31784.416010       .278491                    
P 30  18269.627124 -18516.537206  -5364.866090     16.881632                    
V 30   7143.630102  -1251.719099  30478.071490       .011906                    
P 31  -8285.125568 -23523.619020  -8882.006227    -40.649710                    
V 31   1665.234480 -11750.050526  28979.341141       .096224                    
EOF
